[{"OBJECT_NAME":"STARLINK-32935","OBJECT_ID":"2025-048V","EPOCH":"2026-03-09T09:30:54.046368","MEAN_MOTION":15.27579244,"ECCENTRICITY":0.00014379,"INCLINATION":43.0001,"RA_OF_ASC_NODE":87.2906,"ARG_OF_PERICENTER":266.9278,"MEAN_ANOMALY":93.1409,"EPHEMERIS_TYPE":0,"CLASSIFICATION_TYPE":"U","NORAD_CAT_ID":63202,"ELEMENT_SET_NO":999,"REV_AT_EPOCH":5704,"BSTAR":0.0011227453,"MEAN_MOTION_DOT":0.00030762,"MEAN_MOTION_DDOT":0},{"OBJECT_NAME":"TEVEL2-2","OBJECT_ID":"2025-052K","EPOCH":"2026-03-09T15:33:48.895776","MEAN_MOTION":15.30343745,"ECCENTRICITY":0.0004693,"INCLINATION":97.3987,"RA_OF_ASC_NODE":324.77,"ARG_OF_PERICENTER":105.793,"MEAN_ANOMALY":254.3828,"EPHEMERIS_TYPE":0,"CLASSIFICATION_TYPE":"U","NORAD_CAT_ID":63219,"ELEMENT_SET_NO":999,"REV_AT_EPOCH":5485,"BSTAR":0.00069428,"MEAN_MOTION_DOT":0.00020339,"MEAN_MOTION_DDOT":0}]
